start=new Date('2023-03-15T00:00:00.000Z').valueOf();
sats=[{"RCS_SIZE":"LARGE","TLE_LINE2":"2 46565  53.0554  14.8748 0001656 140.6710 219.4399 15.06383039135025","OBJECT_NAME":"STARLINK-1735","GP_ID":"228084642","MEAN_ELEMENT_THEORY":"SGP4","COUNTRY_CODE":"US","ELEMENT_SET_NO":"999","ARG_OF_PERICENTER":"140.6710","SITE":"AFETR","MEAN_MOTION_DOT":"0.00022138","CENTER_NAME":"EARTH","RA_OF_ASC_NODE":"14.8748","SEMIMAJOR_AXIS":"6925.401","LAUNCH_DATE":"2020-10-06","REV_AT_EPOCH":"13502","EPHEMERIS_TYPE":"0","MEAN_MOTION":"15.06383039","TIME_SYSTEM":"UTC","OBJECT_ID":"2020-070AK","BSTAR":"0.00150110000000","PERIAPSIS":"546.119","FILE":"3860591","MEAN_ANOMALY":"219.4399","INCLINATION":"53.0554","PERIOD":"95.593","EPOCH":"2023-03-14T13:30:26.536896","REF_FRAME":"TEME","APOAPSIS":"548.412","OBJECT_TYPE":"PAYLOAD","ECCENTRICITY":"0.00016560","NORAD_CAT_ID":"46565","MEAN_MOTION_DDOT":"0.0000000000000","TLE_LINE1":"1 46565U 20070AK  23073.56280714  .00022138  00000-0  15011-2 0  9999","CLASSIFICATION_TYPE":"U","DECAY_DATE":null},{"TIME_SYSTEM":"UTC","OBJECT_ID":"2020-070AL","BSTAR":"0.00220600000000","MEAN_MOTION":"15.06383348","REV_AT_EPOCH":"13528","EPHEMERIS_TYPE":"0","SEMIMAJOR_AXIS":"6925.400","LAUNCH_DATE":"2020-10-06","RA_OF_ASC_NODE":"16.1321","MEAN_MOTION_DOT":"0.00032715","CENTER_NAME":"EARTH","SITE":"AFETR","OBJECT_NAME":"STARLINK-1740","COUNTRY_CODE":"US","GP_ID":"228073077","ELEMENT_SET_NO":"999","ARG_OF_PERICENTER":"106.8626","MEAN_ELEMENT_THEORY":"SGP4","TLE_LINE2":"2 46566  53.0549  16.1321 0001548 106.8626 253.2532 15.06383348135288","RCS_SIZE":"LARGE","DECAY_DATE":null,"TLE_LINE1":"1 46566U 20070AL  23073.28269888  .00032715  00000-0  22060-2 0  9992","CLASSIFICATION_TYPE":"U","MEAN_MOTION_DDOT":"0.0000000000000","ECCENTRICITY":"0.00015480","OBJECT_TYPE":"PAYLOAD","NORAD_CAT_ID":"46566","APOAPSIS":"548.337","EPOCH":"2023-03-14T06:47:05.183232","REF_FRAME":"TEME","PERIOD":"95.593","INCLINATION":"53.0549","FILE":"3860373","MEAN_ANOMALY":"253.2532","PERIAPSIS":"546.193"},{"TLE_LINE1":"1 46567U 20070AM  23073.84296042  .00040600  00000-0  27261-2 0  9997","CLASSIFICATION_TYPE":"U","DECAY_DATE":null,"ECCENTRICITY":"0.00009490","OBJECT_TYPE":"PAYLOAD","NORAD_CAT_ID":"46567","MEAN_MOTION_DDOT":"0.0000000000000","REF_FRAME":"TEME","EPOCH":"2023-03-14T20:13:51.780288","APOAPSIS":"547.753","PERIAPSIS":"546.439","INCLINATION":"53.0550","FILE":"3860643","MEAN_ANOMALY":"269.0132","PERIOD":"95.590","MEAN_MOTION":"15.06438446","OBJECT_ID":"2020-070AM","TIME_SYSTEM":"UTC","BSTAR":"0.00272610000000","REV_AT_EPOCH":"13537","EPHEMERIS_TYPE":"0","MEAN_MOTION_DOT":"0.00040600","CENTER_NAME":"EARTH","RA_OF_ASC_NODE":"13.6223","SEMIMAJOR_AXIS":"6925.231","LAUNCH_DATE":"2020-10-06","RCS_SIZE":"LARGE","TLE_LINE2":"2 46567  53.0550  13.6223 0000949  91.0966 269.0132 15.06438446135371","OBJECT_NAME":"STARLINK-1741","GP_ID":"228104770","MEAN_ELEMENT_THEORY":"SGP4","COUNTRY_CODE":"US","ELEMENT_SET_NO":"999","ARG_OF_PERICENTER":"91.0966","SITE":"AFETR"},{"MEAN_MOTION_DDOT":"0.0000000000000","ECCENTRICITY":"0.00011800","OBJECT_TYPE":"PAYLOAD","NORAD_CAT_ID":"46569","DECAY_DATE":null,"TLE_LINE1":"1 46569U 20070AP  23073.85770991  .00046505  00000-0  31170-2 0  9994","CLASSIFICATION_TYPE":"U","PERIOD":"95.590","INCLINATION":"53.0543","FILE":"3860643","MEAN_ANOMALY":"259.0708","PERIAPSIS":"546.270","APOAPSIS":"547.904","EPOCH":"2023-03-14T20:35:06.136224","REF_FRAME":"TEME","REV_AT_EPOCH":"13537","EPHEMERIS_TYPE":"0","OBJECT_ID":"2020-070AP","TIME_SYSTEM":"UTC","BSTAR":"0.00311700000000","MEAN_MOTION":"15.06441383","SITE":"AFETR","OBJECT_NAME":"STARLINK-1747","GP_ID":"228105020","COUNTRY_CODE":"US","ARG_OF_PERICENTER":"101.0414","ELEMENT_SET_NO":"999","MEAN_ELEMENT_THEORY":"SGP4","TLE_LINE2":"2 46569  53.0543  13.5507 0001180 101.0414 259.0708 15.06441383135379","RCS_SIZE":"LARGE","SEMIMAJOR_AXIS":"6925.222","LAUNCH_DATE":"2020-10-06","RA_OF_ASC_NODE":"13.5507","MEAN_MOTION_DOT":"0.00046505","CENTER_NAME":"EARTH"},{"ELEMENT_SET_NO":"999","GP_ID":"228072328","COUNTRY_CODE":"US","MEAN_ELEMENT_THEORY":"SGP4","ARG_OF_PERICENTER":"102.1049","OBJECT_NAME":"STARLINK-1748","TLE_LINE2":"2 46570  53.0595   5.0922 0004304 102.1049 258.0428 15.20780388135423","RCS_SIZE":"LARGE","SITE":"AFETR","RA_OF_ASC_NODE":"5.0922","MEAN_MOTION_DOT":"0.00019972","CENTER_NAME":"EARTH","LAUNCH_DATE":"2020-10-06","SEMIMAJOR_AXIS":"6881.622","EPHEMERIS_TYPE":"0","REV_AT_EPOCH":"13542","BSTAR":"0.00090709000000","TIME_SYSTEM":"UTC","OBJECT_ID":"2020-070AQ","MEAN_MOTION":"15.20780388","INCLINATION":"53.0595","FILE":"3860373","MEAN_ANOMALY":"258.0428","PERIAPSIS":"500.526","PERIOD":"94.688","REF_FRAME":"TEME","EPOCH":"2023-03-14T02:14:14.244288","APOAPSIS":"506.449","MEAN_MOTION_DDOT":"0.0000000000000","NORAD_CAT_ID":"46570","OBJECT_TYPE":"PAYLOAD","ECCENTRICITY":"0.00043040","DECAY_DATE":null,"CLASSIFICATION_TYPE":"U","TLE_LINE1":"1 46570U 20070AQ  23073.09322042  .00019972  00000-0  90709-3 0  9994"},{"MEAN_MOTION_DDOT":"0.0000000000000","NORAD_CAT_ID":"46572","ECCENTRICITY":"0.00011590","OBJECT_TYPE":"PAYLOAD","DECAY_DATE":null,"CLASSIFICATION_TYPE":"U","TLE_LINE1":"1 46572U 20070AS  23073.89544773  .00013825  00000-0  94527-3 0  9994","FILE":"3860643","INCLINATION":"53.0563","MEAN_ANOMALY":"250.4123","PERIAPSIS":"546.420","PERIOD":"95.592","REF_FRAME":"TEME","EPOCH":"2023-03-14T21:29:26.683872","APOAPSIS":"548.025","EPHEMERIS_TYPE":"0","REV_AT_EPOCH":"13509","BSTAR":"0.00094527000000","TIME_SYSTEM":"UTC","OBJECT_ID":"2020-070AS","MEAN_MOTION":"15.06397031","GP_ID":"228106010","COUNTRY_CODE":"US","ELEMENT_SET_NO":"999","MEAN_ELEMENT_THEORY":"SGP4","ARG_OF_PERICENTER":"109.6991","OBJECT_NAME":"STARLINK-1531","RCS_SIZE":"LARGE","TLE_LINE2":"2 46572  53.0563  33.3769 0001159 109.6991 250.4123 15.06397031135090","SITE":"AFETR","RA_OF_ASC_NODE":"33.3769","MEAN_MOTION_DOT":"0.00013825","CENTER_NAME":"EARTH","SEMIMAJOR_AXIS":"6925.358","LAUNCH_DATE":"2020-10-06"},{"NORAD_CAT_ID":"46573","OBJECT_TYPE":"PAYLOAD","ECCENTRICITY":"0.00048590","MEAN_MOTION_DDOT":"0.0000000000000","CLASSIFICATION_TYPE":"U","TLE_LINE1":"1 46573U 20070AT  23073.91667824  .00101586  00000-0  10770-2 0  9990","DECAY_DATE":null,"PERIOD":"92.112","PERIAPSIS":"374.801","MEAN_ANOMALY":"118.9482","FILE":"3860643","INCLINATION":"53.0520","APOAPSIS":"381.367","REF_FRAME":"TEME","EPOCH":"2023-03-14T22:00:00.999936","EPHEMERIS_TYPE":"0","REV_AT_EPOCH":"130","MEAN_MOTION":"15.63317470","BSTAR":"0.00107700000000","OBJECT_ID":"2020-070AT","TIME_SYSTEM":"UTC","SITE":"AFETR","TLE_LINE2":"2 46573  53.0520 346.3572 0004859 138.3394 118.9482 15.63317470  1303","RCS_SIZE":"LARGE","COUNTRY_CODE":"US","GP_ID":"228104272","ARG_OF_PERICENTER":"138.3394","ELEMENT_SET_NO":"999","MEAN_ELEMENT_THEORY":"SGP4","OBJECT_NAME":"STARLINK-1650","SEMIMAJOR_AXIS":"6756.219","LAUNCH_DATE":"2020-10-06","MEAN_MOTION_DOT":"0.00101586","CENTER_NAME":"EARTH","RA_OF_ASC_NODE":"346.3572"},{"CLASSIFICATION_TYPE":"U","TLE_LINE1":"1 46574U 20070AU  23073.85908262  .00029462  00000-0  19878-2 0  9998","DECAY_DATE":null,"NORAD_CAT_ID":"46574","OBJECT_TYPE":"PAYLOAD","ECCENTRICITY":"0.00015610","MEAN_MOTION_DDOT":"0.0000000000000","REF_FRAME":"TEME","EPOCH":"2023-03-14T20:37:04.738368","APOAPSIS":"548.254","PERIAPSIS":"546.092","MEAN_ANOMALY":"285.5447","FILE":"3860643","INCLINATION":"53.0553","PERIOD":"95.591","MEAN_MOTION":"15.06413295","BSTAR":"0.00198780000000","TIME_SYSTEM":"UTC","OBJECT_ID":"2020-070AU","EPHEMERIS_TYPE":"0","REV_AT_EPOCH":"13530","MEAN_MOTION_DOT":"0.00029462","CENTER_NAME":"EARTH","RA_OF_ASC_NODE":"18.5524","LAUNCH_DATE":"2020-10-06","SEMIMAJOR_AXIS":"6925.308","RCS_SIZE":"LARGE","TLE_LINE2":"2 46574  53.0553  18.5524 0001561  74.5714 285.5447 15.06413295135308","COUNTRY_CODE":"US","GP_ID":"228104522","MEAN_ELEMENT_THEORY":"SGP4","ELEMENT_SET_NO":"999","ARG_OF_PERICENTER":"74.5714","OBJECT_NAME":"STARLINK-1660","SITE":"AFETR"},{"MEAN_MOTION":"15.06479527","BSTAR":"0.00259210000000","TIME_SYSTEM":"UTC","OBJECT_ID":"2020-070AV","EPHEMERIS_TYPE":"0","REV_AT_EPOCH":"13565","LAUNCH_DATE":"2020-10-06","SEMIMAJOR_AXIS":"6925.105","MEAN_MOTION_DOT":"0.00038623","CENTER_NAME":"EARTH","RA_OF_ASC_NODE":"353.3009","SITE":"AFETR","RCS_SIZE":"LARGE","TLE_LINE2":"2 46575  53.0540 353.3009 0001155 108.0792 252.0323 15.06479527135651","COUNTRY_CODE":"US","GP_ID":"228105771","ELEMENT_SET_NO":"999","ARG_OF_PERICENTER":"108.0792","MEAN_ELEMENT_THEORY":"SGP4","OBJECT_NAME":"STARLINK-1675","CLASSIFICATION_TYPE":"U","TLE_LINE1":"1 46575U 20070AV  23073.91477639  .00038623  00000-0  25921-2 0  9990","DECAY_DATE":null,"NORAD_CAT_ID":"46575","OBJECT_TYPE":"PAYLOAD","ECCENTRICITY":"0.00011550","MEAN_MOTION_DDOT":"0.0000000000000","APOAPSIS":"547.770","EPOCH":"2023-03-14T21:57:16.680096","REF_FRAME":"TEME","PERIOD":"95.587","PERIAPSIS":"546.170","FILE":"3860643","MEAN_ANOMALY":"252.0323","INCLINATION":"53.0540"},{"REF_FRAME":"TEME","EPOCH":"2023-03-14T20:26:26.632032","APOAPSIS":"547.622","FILE":"3860643","INCLINATION":"53.0561","MEAN_ANOMALY":"264.9141","PERIAPSIS":"546.807","PERIOD":"95.592","DECAY_DATE":null,"TLE_LINE1":"1 46576U 20070AW  23073.85169713  .00004625  00000-0  32919-3 0  9996","CLASSIFICATION_TYPE":"U","MEAN_MOTION_DDOT":"0.0000000000000","ECCENTRICITY":"0.00005890","OBJECT_TYPE":"PAYLOAD","NORAD_CAT_ID":"46576","RA_OF_ASC_NODE":"18.5808","MEAN_MOTION_DOT":"0.00004625","CENTER_NAME":"EARTH","SEMIMAJOR_AXIS":"6925.349","LAUNCH_DATE":"2020-10-06","OBJECT_NAME":"STARLINK-1677","GP_ID":"228105511","ELEMENT_SET_NO":"999","COUNTRY_CODE":"US","ARG_OF_PERICENTER":"95.1916","MEAN_ELEMENT_THEORY":"SGP4","TLE_LINE2":"2 46576  53.0561  18.5808 0000589  95.1916 264.9141 15.06399700135302","RCS_SIZE":"LARGE","SITE":"AFETR","TIME_SYSTEM":"UTC","OBJECT_ID":"2020-070AW","BSTAR":"0.00032919000000","MEAN_MOTION":"15.06399700","REV_AT_EPOCH":"13530","EPHEMERIS_TYPE":"0"}];
